GLOBALSTAR M084         
1 38040U 11080A   25009.79969493 -.00000082  00000+0  11923-3 0  9996
2 38040  51.9985 170.6615 0001311  90.6326  49.3016 12.62273441602667
GLOBALSTAR M080         
1 38041U 11080B   25009.85588876 -.00000083  00000+0  11377-3 0  9990
2 38041  52.0037 172.0452 0001307  76.1161  77.1667 12.62260481602935
GLOBALSTAR M082         
1 38042U 11080C   25009.86799500 -.00000104  00000+0 -14461-6 0  9995
2 38042  52.0070 127.4350 0001006 142.3151   7.5440 12.62271972603502
GLOBALSTAR M092         
1 38043U 11080D   25010.07739307 -.00000072  00000+0  17723-3 0  9994
2 38043  52.0054 217.1672 0001150  85.7501  56.1179 12.62271867602194
GLOBALSTAR M090         
1 38044U 11080E   25010.51253618 -.00000113  00000+0 -53287-4 0  9993
2 38044  51.9882 119.4849 0000771 129.3688 310.5764 12.62265564603747
GLOBALSTAR M086         
1 38045U 11080F   25010.37222561 -.00000111  00000+0 -37596-4 0  9994
2 38045  51.9892 120.4502 0000518  39.5500   2.9444 12.62265582603737
GLOBALSTAR M097         
1 39072U 13005A   25010.38962753 -.00000081  00000+0  12513-3 0  9995
2 39072  52.0061  34.7859 0000117 129.5727 230.5150 12.62268809550960
GLOBALSTAR M093         
1 39073U 13005B   25009.33320638 -.00000091  00000+0  72855-4 0  9996
2 39073  51.9825  31.5544 0000078 138.0336 222.0537 12.62260832550828
